[{"OBJECT_NAME":"FLOCK 4G-15","OBJECT_ID":"2025-009BX","EPOCH":"2026-03-09T17:13:37.807680","MEAN_MOTION":15.27266411,"ECCENTRICITY":0.00036988,"INCLINATION":97.4054,"RA_OF_ASC_NODE":151.1927,"ARG_OF_PERICENTER":316.8208,"MEAN_ANOMALY":43.274,"EPHEMERIS_TYPE":0,"CLASSIFICATION_TYPE":"U","NORAD_CAT_ID":62678,"ELEMENT_SET_NO":999,"REV_AT_EPOCH":12135,"BSTAR":0.00047574812,"MEAN_MOTION_DOT":0.00012647,"MEAN_MOTION_DDOT":0},{"OBJECT_NAME":"STARLINK-34851","OBJECT_ID":"2025-259AB","EPOCH":"2026-03-09T22:23:45.640032","MEAN_MOTION":15.27600809,"ECCENTRICITY":0.00018606,"INCLINATION":43.0025,"RA_OF_ASC_NODE":273.3864,"ARG_OF_PERICENTER":268.9338,"MEAN_ANOMALY":91.13,"EPHEMERIS_TYPE":0,"CLASSIFICATION_TYPE":"U","NORAD_CAT_ID":66447,"ELEMENT_SET_NO":999,"REV_AT_EPOCH":1941,"BSTAR":0.00088989614,"MEAN_MOTION_DOT":0.00024322,"MEAN_MOTION_DDOT":0}]
